STARLINK-31759          
1 59740U 24090L   26068.34447959  .00000510  00000+0  28101-4 0  9998
2 59740  43.0006 185.7591 0002695 291.1394  68.9169 15.27570206103386
LUR-1                   
1 60506U 24149AQ  26068.79566301  .00009121  00000+0  32985-3 0  9998
2 60506  97.3790 148.4255 0002777 309.1571  50.9421 15.28658648 86785
